[{"id":1,"region_id":1,"code":"zhongzheng","name_en":"Zhongzheng District","name_zh":"中正區","name_ja":"中正区","name_ko":"중정구","is_active":true,"created_at":"2025-12-11T00:35:30.957261"}, {"id":2,"region_id":1,"code":"datong","name_en":"Datong District","name_zh":"大同區","name_ja":"大同区","name_ko":"대동구","is_active":true,"created_at":"2025-12-11T00:35:30.964042"}, {"id":3,"region_id":1,"code":"zhongshan","name_en":"Zhongshan District","name_zh":"中山區","name_ja":"中山区","name_ko":"중산구","is_active":true,"created_at":"2025-12-11T00:35:30.96734"}, {"id":4,"region_id":1,"code":"songshan","name_en":"Songshan District","name_zh":"松山區","name_ja":"松山区","name_ko":"송산구","is_active":true,"created_at":"2025-12-11T00:35:30.971288"}, {"id":5,"region_id":1,"code":"daan","name_en":"Da'an District","name_zh":"大安區","name_ja":"大安区","name_ko":"다안구","is_active":true,"created_at":"2025-12-11T00:35:30.974991"}, {"id":6,"region_id":1,"code":"wanhua","name_en":"Wanhua District","name_zh":"萬華區","name_ja":"萬華区","name_ko":"만화구","is_active":true,"created_at":"2025-12-11T00:35:30.978965"}, {"id":7,"region_id":1,"code":"xinyi","name_en":"Xinyi District","name_zh":"信義區","name_ja":"信義区","name_ko":"신의구","is_active":true,"created_at":"2025-12-11T00:35:30.982133"}, {"id":8,"region_id":1,"code":"shilin","name_en":"Shilin District","name_zh":"士林區","name_ja":"士林区","name_ko":"사림구","is_active":true,"created_at":"2025-12-11T00:35:30.98547"}, {"id":9,"region_id":1,"code":"beitou","name_en":"Beitou District","name_zh":"北投區","name_ja":"北投区","name_ko":"북투구","is_active":true,"created_at":"2025-12-11T00:35:30.990917"}, {"id":10,"region_id":1,"code":"neihu","name_en":"Neihu District","name_zh":"內湖區","name_ja":"内湖区","name_ko":"내호구","is_active":true,"created_at":"2025-12-11T00:35:30.994974"}, {"id":11,"region_id":1,"code":"nangang","name_en":"Nangang District","name_zh":"南港區","name_ja":"南港区","name_ko":"남항구","is_active":true,"created_at":"2025-12-11T00:35:30.998229"}, {"id":12,"region_id":1,"code":"wenshan","name_en":"Wenshan District","name_zh":"文山區","name_ja":"文山区","name_ko":"문산구","is_active":true,"created_at":"2025-12-11T00:35:31.001556"}, {"id":13,"region_id":2,"code":"banqiao","name_en":"Banqiao District","name_zh":"板橋區","name_ja":"板橋区","name_ko":"판교구","is_active":true,"created_at":"2025-12-11T00:35:31.004888"}, {"id":14,"region_id":2,"code":"sanchong","name_en":"Sanchong District","name_zh":"三重區","name_ja":"三重区","name_ko":"삼중구","is_active":true,"created_at":"2025-12-11T00:35:31.008829"}, {"id":15,"region_id":2,"code":"zhonghe","name_en":"Zhonghe District","name_zh":"中和區","name_ja":"中和区","name_ko":"중화구","is_active":true,"created_at":"2025-12-11T00:35:31.013329"}, {"id":16,"region_id":2,"code":"yonghe","name_en":"Yonghe District","name_zh":"永和區","name_ja":"永和区","name_ko":"영화구","is_active":true,"created_at":"2025-12-11T00:35:31.016903"}, {"id":17,"region_id":2,"code":"xinzhuang","name_en":"Xinzhuang District","name_zh":"新莊區","name_ja":"新荘区","name_ko":"신장구","is_active":true,"created_at":"2025-12-11T00:35:31.020004"}, {"id":18,"region_id":2,"code":"xindian","name_en":"Xindian District","name_zh":"新店區","name_ja":"新店区","name_ko":"신점구","is_active":true,"created_at":"2025-12-11T00:35:31.024758"}, {"id":19,"region_id":2,"code":"tucheng","name_en":"Tucheng District","name_zh":"土城區","name_ja":"土城区","name_ko":"토성구","is_active":true,"created_at":"2025-12-11T00:35:31.027927"}, {"id":20,"region_id":2,"code":"luzhou","name_en":"Luzhou District","name_zh":"蘆洲區","name_ja":"蘆洲区","name_ko":"노주구","is_active":true,"created_at":"2025-12-11T00:35:31.032274"}, {"id":21,"region_id":2,"code":"shulin","name_en":"Shulin District","name_zh":"樹林區","name_ja":"樹林区","name_ko":"수림구","is_active":true,"created_at":"2025-12-11T00:35:31.035576"}, {"id":22,"region_id":2,"code":"yingge","name_en":"Yingge District","name_zh":"鶯歌區","name_ja":"鶯歌区","name_ko":"앵가구","is_active":true,"created_at":"2025-12-11T00:35:31.039312"}, {"id":23,"region_id":2,"code":"sanxia","name_en":"Sanxia District","name_zh":"三峽區","name_ja":"三峽区","name_ko":"삼협구","is_active":true,"created_at":"2025-12-11T00:35:31.043047"}, {"id":24,"region_id":2,"code":"danshui","name_en":"Tamsui District","name_zh":"淡水區","name_ja":"淡水区","name_ko":"담수구","is_active":true,"created_at":"2025-12-11T00:35:31.046477"}, {"id":25,"region_id":2,"code":"xizhi","name_en":"Xizhi District","name_zh":"汐止區","name_ja":"汐止区","name_ko":"석지구","is_active":true,"created_at":"2025-12-11T00:35:31.049484"}, {"id":26,"region_id":2,"code":"ruifang","name_en":"Ruifang District","name_zh":"瑞芳區","name_ja":"瑞芳区","name_ko":"서방구","is_active":true,"created_at":"2025-12-11T00:35:31.053822"}, {"id":27,"region_id":2,"code":"wugu","name_en":"Wugu District","name_zh":"五股區","name_ja":"五股区","name_ko":"오고구","is_active":true,"created_at":"2025-12-11T00:35:31.056653"}, {"id":28,"region_id":2,"code":"taishan","name_en":"Taishan District","name_zh":"泰山區","name_ja":"泰山区","name_ko":"태산구","is_active":true,"created_at":"2025-12-11T00:35:31.063958"}, {"id":29,"region_id":2,"code":"linkou","name_en":"Linkou District","name_zh":"林口區","name_ja":"林口区","name_ko":"임구구","is_active":true,"created_at":"2025-12-11T00:35:31.067612"}, {"id":30,"region_id":2,"code":"shenkeng","name_en":"Shenkeng District","name_zh":"深坑區","name_ja":"深坑区","name_ko":"심갱구","is_active":true,"created_at":"2025-12-11T00:35:31.070996"}, {"id":31,"region_id":2,"code":"shiding","name_en":"Shiding District","name_zh":"石碇區","name_ja":"石碇区","name_ko":"석정구","is_active":true,"created_at":"2025-12-11T00:35:31.073569"}, {"id":32,"region_id":2,"code":"pinglin","name_en":"Pinglin District","name_zh":"坪林區","name_ja":"坪林区","name_ko":"평림구","is_active":true,"created_at":"2025-12-11T00:35:31.076802"}, {"id":33,"region_id":2,"code":"sanzhi","name_en":"Sanzhi District","name_zh":"三芝區","name_ja":"三芝区","name_ko":"삼지구","is_active":true,"created_at":"2025-12-11T00:35:31.079601"}, {"id":34,"region_id":2,"code":"shimen","name_en":"Shimen District","name_zh":"石門區","name_ja":"石門区","name_ko":"석문구","is_active":true,"created_at":"2025-12-11T00:35:31.083385"}, {"id":35,"region_id":2,"code":"bali","name_en":"Bali District","name_zh":"八里區","name_ja":"八里区","name_ko":"팔리구","is_active":true,"created_at":"2025-12-11T00:35:31.08687"}, {"id":36,"region_id":2,"code":"pingxi","name_en":"Pingxi District","name_zh":"平溪區","name_ja":"平溪区","name_ko":"평계구","is_active":true,"created_at":"2025-12-11T00:35:31.089951"}, {"id":37,"region_id":2,"code":"shuangxi","name_en":"Shuangxi District","name_zh":"雙溪區","name_ja":"双溪区","name_ko":"쌍계구","is_active":true,"created_at":"2025-12-11T00:35:31.092544"}, {"id":38,"region_id":2,"code":"gongliao","name_en":"Gongliao District","name_zh":"貢寮區","name_ja":"貢寮区","name_ko":"공료구","is_active":true,"created_at":"2025-12-11T00:35:31.095537"}, {"id":39,"region_id":2,"code":"jinshan","name_en":"Jinshan District","name_zh":"金山區","name_ja":"金山区","name_ko":"금산구","is_active":true,"created_at":"2025-12-11T00:35:31.098003"}, {"id":40,"region_id":2,"code":"wanli","name_en":"Wanli District","name_zh":"萬里區","name_ja":"萬里区","name_ko":"만리구","is_active":true,"created_at":"2025-12-11T00:35:31.10076"}, {"id":41,"region_id":2,"code":"wulai","name_en":"Wulai District","name_zh":"烏來區","name_ja":"烏来区","name_ko":"오래구","is_active":true,"created_at":"2025-12-11T00:35:31.103749"}, {"id":42,"region_id":3,"code":"taoyuan_dist","name_en":"Taoyuan District","name_zh":"桃園區","name_ja":"桃園区","name_ko":"도원구","is_active":true,"created_at":"2025-12-11T00:35:31.109538"}, {"id":43,"region_id":3,"code":"zhongli","name_en":"Zhongli District","name_zh":"中壢區","name_ja":"中壢区","name_ko":"중력구","is_active":true,"created_at":"2025-12-11T00:35:31.112686"}, {"id":44,"region_id":3,"code":"daxi","name_en":"Daxi District","name_zh":"大溪區","name_ja":"大渓区","name_ko":"대계구","is_active":true,"created_at":"2025-12-11T00:35:31.116811"}, {"id":45,"region_id":3,"code":"yangmei","name_en":"Yangmei District","name_zh":"楊梅區","name_ja":"楊梅区","name_ko":"양매구","is_active":true,"created_at":"2025-12-11T00:35:31.124424"}, {"id":46,"region_id":3,"code":"luzhu","name_en":"Luzhu District","name_zh":"蘆竹區","name_ja":"蘆竹区","name_ko":"노죽구","is_active":true,"created_at":"2025-12-11T00:35:31.135628"}, {"id":47,"region_id":3,"code":"dayuan","name_en":"Dayuan District","name_zh":"大園區","name_ja":"大園区","name_ko":"대원구","is_active":true,"created_at":"2025-12-11T00:35:31.143424"}, {"id":48,"region_id":3,"code":"guishan","name_en":"Guishan District","name_zh":"龜山區","name_ja":"亀山区","name_ko":"귀산구","is_active":true,"created_at":"2025-12-11T00:35:31.148133"}, {"id":49,"region_id":3,"code":"bade","name_en":"Bade District","name_zh":"八德區","name_ja":"八德区","name_ko":"팔덕구","is_active":true,"created_at":"2025-12-11T00:35:31.15983"}, {"id":50,"region_id":3,"code":"longtan","name_en":"Longtan District","name_zh":"龍潭區","name_ja":"龍潭区","name_ko":"용담구","is_active":true,"created_at":"2025-12-11T00:35:31.164159"}, {"id":51,"region_id":3,"code":"pingzhen","name_en":"Pingzhen District","name_zh":"平鎮區","name_ja":"平鎮区","name_ko":"평진구","is_active":true,"created_at":"2025-12-11T00:35:31.171931"}, {"id":52,"region_id":3,"code":"xinwu","name_en":"Xinwu District","name_zh":"新屋區","name_ja":"新屋区","name_ko":"신옥구","is_active":true,"created_at":"2025-12-11T00:35:31.176545"}, {"id":53,"region_id":3,"code":"guanyin","name_en":"Guanyin District","name_zh":"觀音區","name_ja":"観音区","name_ko":"관음구","is_active":true,"created_at":"2025-12-11T00:35:31.179461"}, {"id":54,"region_id":3,"code":"fuxing","name_en":"Fuxing District","name_zh":"復興區","name_ja":"復興区","name_ko":"부흥구","is_active":true,"created_at":"2025-12-11T00:35:31.183174"}, {"id":55,"region_id":4,"code":"central","name_en":"Central District","name_zh":"中區","name_ja":"中区","name_ko":"중구","is_active":true,"created_at":"2025-12-11T00:35:31.187143"}, {"id":56,"region_id":4,"code":"east","name_en":"East District","name_zh":"東區","name_ja":"東区","name_ko":"동구","is_active":true,"created_at":"2025-12-11T00:35:31.192373"}, {"id":57,"region_id":4,"code":"south","name_en":"South District","name_zh":"南區","name_ja":"南区","name_ko":"남구","is_active":true,"created_at":"2025-12-11T00:35:31.197279"}, {"id":58,"region_id":4,"code":"west","name_en":"West District","name_zh":"西區","name_ja":"西区","name_ko":"서구","is_active":true,"created_at":"2025-12-11T00:35:31.202251"}, {"id":59,"region_id":4,"code":"north","name_en":"North District","name_zh":"北區","name_ja":"北区","name_ko":"북구","is_active":true,"created_at":"2025-12-11T00:35:31.208616"}, {"id":60,"region_id":4,"code":"beitun","name_en":"Beitun District","name_zh":"北屯區","name_ja":"北屯区","name_ko":"북둔구","is_active":true,"created_at":"2025-12-11T00:35:31.213318"}, {"id":61,"region_id":4,"code":"xitun","name_en":"Xitun District","name_zh":"西屯區","name_ja":"西屯区","name_ko":"서둔구","is_active":true,"created_at":"2025-12-11T00:35:31.219915"}, {"id":62,"region_id":4,"code":"nantun","name_en":"Nantun District","name_zh":"南屯區","name_ja":"南屯区","name_ko":"남둔구","is_active":true,"created_at":"2025-12-11T00:35:31.224614"}, {"id":63,"region_id":4,"code":"taiping","name_en":"Taiping District","name_zh":"太平區","name_ja":"太平区","name_ko":"태평구","is_active":true,"created_at":"2025-12-11T00:35:31.227588"}, {"id":64,"region_id":4,"code":"dali","name_en":"Dali District","name_zh":"大里區","name_ja":"大里区","name_ko":"대리구","is_active":true,"created_at":"2025-12-11T00:35:31.230949"}, {"id":65,"region_id":4,"code":"wufeng","name_en":"Wufeng District","name_zh":"霧峰區","name_ja":"霧峰区","name_ko":"무봉구","is_active":true,"created_at":"2025-12-11T00:35:31.233671"}, {"id":66,"region_id":4,"code":"wuri","name_en":"Wuri District","name_zh":"烏日區","name_ja":"烏日区","name_ko":"오일구","is_active":true,"created_at":"2025-12-11T00:35:31.245405"}, {"id":67,"region_id":4,"code":"fengyuan","name_en":"Fengyuan District","name_zh":"豐原區","name_ja":"豊原区","name_ko":"풍원구","is_active":true,"created_at":"2025-12-11T00:35:31.253685"}, {"id":68,"region_id":4,"code":"houli","name_en":"Houli District","name_zh":"后里區","name_ja":"后里区","name_ko":"후리구","is_active":true,"created_at":"2025-12-11T00:35:31.256687"}, {"id":69,"region_id":4,"code":"shigang","name_en":"Shigang District","name_zh":"石岡區","name_ja":"石岡区","name_ko":"석강구","is_active":true,"created_at":"2025-12-11T00:35:31.259577"}, {"id":70,"region_id":4,"code":"dongshi","name_en":"Dongshi District","name_zh":"東勢區","name_ja":"東勢区","name_ko":"동세구","is_active":true,"created_at":"2025-12-11T00:35:31.266602"}, {"id":71,"region_id":4,"code":"heping","name_en":"Heping District","name_zh":"和平區","name_ja":"和平区","name_ko":"화평구","is_active":true,"created_at":"2025-12-11T00:35:31.273952"}, {"id":72,"region_id":4,"code":"xinshe","name_en":"Xinshe District","name_zh":"新社區","name_ja":"新社区","name_ko":"신사구","is_active":true,"created_at":"2025-12-11T00:35:31.276635"}, {"id":73,"region_id":4,"code":"tanzi","name_en":"Tanzi District","name_zh":"潭子區","name_ja":"潭子区","name_ko":"담자구","is_active":true,"created_at":"2025-12-11T00:35:31.279921"}, {"id":74,"region_id":4,"code":"daya","name_en":"Daya District","name_zh":"大雅區","name_ja":"大雅区","name_ko":"대아구","is_active":true,"created_at":"2025-12-11T00:35:31.288764"}, {"id":75,"region_id":4,"code":"shengang","name_en":"Shengang District","name_zh":"神岡區","name_ja":"神岡区","name_ko":"신강구","is_active":true,"created_at":"2025-12-11T00:35:31.292019"}, {"id":76,"region_id":4,"code":"dadu","name_en":"Dadu District","name_zh":"大肚區","name_ja":"大肚区","name_ko":"대두구","is_active":true,"created_at":"2025-12-11T00:35:31.295293"}, {"id":77,"region_id":4,"code":"shalu","name_en":"Shalu District","name_zh":"沙鹿區","name_ja":"沙鹿区","name_ko":"사록구","is_active":true,"created_at":"2025-12-11T00:35:31.297803"}, {"id":78,"region_id":4,"code":"longjing","name_en":"Longjing District","name_zh":"龍井區","name_ja":"龍井区","name_ko":"용정구","is_active":true,"created_at":"2025-12-11T00:35:31.301253"}, {"id":79,"region_id":4,"code":"wuqi","name_en":"Wuqi District","name_zh":"梧棲區","name_ja":"梧棲区","name_ko":"오서구","is_active":true,"created_at":"2025-12-11T00:35:31.304674"}, {"id":80,"region_id":4,"code":"qingshui","name_en":"Qingshui District","name_zh":"清水區","name_ja":"清水区","name_ko":"청수구","is_active":true,"created_at":"2025-12-11T00:35:31.307716"}, {"id":81,"region_id":4,"code":"dajia","name_en":"Dajia District","name_zh":"大甲區","name_ja":"大甲区","name_ko":"대갑구","is_active":true,"created_at":"2025-12-11T00:35:31.311458"}, {"id":82,"region_id":4,"code":"waipu","name_en":"Waipu District","name_zh":"外埔區","name_ja":"外埔区","name_ko":"외포구","is_active":true,"created_at":"2025-12-11T00:35:31.315324"}, {"id":83,"region_id":4,"code":"daan_tc","name_en":"Da'an District","name_zh":"大安區","name_ja":"大安区","name_ko":"대안구","is_active":true,"created_at":"2025-12-11T00:35:31.318506"}, {"id":84,"region_id":5,"code":"west_central","name_en":"West Central District","name_zh":"中西區","name_ja":"中西区","name_ko":"중서구","is_active":true,"created_at":"2025-12-11T00:35:31.32153"}, {"id":85,"region_id":5,"code":"east_dist","name_en":"East District","name_zh":"東區","name_ja":"東区","name_ko":"동구","is_active":true,"created_at":"2025-12-11T00:35:31.324895"}, {"id":86,"region_id":5,"code":"south_dist","name_en":"South District","name_zh":"南區","name_ja":"南区","name_ko":"남구","is_active":true,"created_at":"2025-12-11T00:35:31.327996"}, {"id":87,"region_id":5,"code":"north_dist","name_en":"North District","name_zh":"北區","name_ja":"北区","name_ko":"북구","is_active":true,"created_at":"2025-12-11T00:35:31.330746"}, {"id":88,"region_id":5,"code":"anping","name_en":"Anping District","name_zh":"安平區","name_ja":"安平区","name_ko":"안평구","is_active":true,"created_at":"2025-12-11T00:35:31.333385"}, {"id":89,"region_id":5,"code":"annan","name_en":"Annan District","name_zh":"安南區","name_ja":"安南区","name_ko":"안남구","is_active":true,"created_at":"2025-12-11T00:35:31.335818"}, {"id":90,"region_id":5,"code":"yongkang","name_en":"Yongkang District","name_zh":"永康區","name_ja":"永康区","name_ko":"영강구","is_active":true,"created_at":"2025-12-11T00:35:31.339228"}, {"id":91,"region_id":5,"code":"guiren","name_en":"Guiren District","name_zh":"歸仁區","name_ja":"帰仁区","name_ko":"귀인구","is_active":true,"created_at":"2025-12-11T00:35:31.341788"}, {"id":92,"region_id":5,"code":"xinhua","name_en":"Xinhua District","name_zh":"新化區","name_ja":"新化区","name_ko":"신화구","is_active":true,"created_at":"2025-12-11T00:35:31.344631"}, {"id":93,"region_id":5,"code":"zuozhen","name_en":"Zuozhen District","name_zh":"左鎮區","name_ja":"左鎮区","name_ko":"좌진구","is_active":true,"created_at":"2025-12-11T00:35:31.347383"}, {"id":94,"region_id":5,"code":"yujing","name_en":"Yujing District","name_zh":"玉井區","name_ja":"玉井区","name_ko":"옥정구","is_active":true,"created_at":"2025-12-11T00:35:31.352069"}, {"id":95,"region_id":5,"code":"nanxi","name_en":"Nanxi District","name_zh":"楠西區","name_ja":"楠西区","name_ko":"남서구","is_active":true,"created_at":"2025-12-11T00:35:31.355156"}, {"id":96,"region_id":5,"code":"nanhua","name_en":"Nanhua District","name_zh":"南化區","name_ja":"南化区","name_ko":"남화구","is_active":true,"created_at":"2025-12-11T00:35:31.358223"}, {"id":97,"region_id":5,"code":"rende","name_en":"Rende District","name_zh":"仁德區","name_ja":"仁德区","name_ko":"인덕구","is_active":true,"created_at":"2025-12-11T00:35:31.36081"}, {"id":98,"region_id":5,"code":"guanmiao","name_en":"Guanmiao District","name_zh":"關廟區","name_ja":"関廟区","name_ko":"관묘구","is_active":true,"created_at":"2025-12-11T00:35:31.367275"}, {"id":99,"region_id":5,"code":"longqi","name_en":"Longqi District","name_zh":"龍崎區","name_ja":"龍崎区","name_ko":"용기구","is_active":true,"created_at":"2025-12-11T00:35:31.370087"}, {"id":100,"region_id":5,"code":"guantian","name_en":"Guantian District","name_zh":"官田區","name_ja":"官田区","name_ko":"관전구","is_active":true,"created_at":"2025-12-11T00:35:31.372895"}, {"id":101,"region_id":5,"code":"madou","name_en":"Madou District","name_zh":"麻豆區","name_ja":"麻豆区","name_ko":"마두구","is_active":true,"created_at":"2025-12-11T00:35:31.375551"}, {"id":102,"region_id":5,"code":"jiali","name_en":"Jiali District","name_zh":"佳里區","name_ja":"佳里区","name_ko":"가리구","is_active":true,"created_at":"2025-12-11T00:35:31.380128"}, {"id":103,"region_id":5,"code":"xigang","name_en":"Xigang District","name_zh":"西港區","name_ja":"西港区","name_ko":"서항구","is_active":true,"created_at":"2025-12-11T00:35:31.383576"}, {"id":104,"region_id":5,"code":"qigu","name_en":"Qigu District","name_zh":"七股區","name_ja":"七股区","name_ko":"칠고구","is_active":true,"created_at":"2025-12-11T00:35:31.387155"}, {"id":105,"region_id":5,"code":"jiangjun","name_en":"Jiangjun District","name_zh":"將軍區","name_ja":"将軍区","name_ko":"장군구","is_active":true,"created_at":"2025-12-11T00:35:31.390471"}, {"id":106,"region_id":5,"code":"xuejia","name_en":"Xuejia District","name_zh":"學甲區","name_ja":"学甲区","name_ko":"학갑구","is_active":true,"created_at":"2025-12-11T00:35:31.397442"}, {"id":107,"region_id":5,"code":"beimen","name_en":"Beimen District","name_zh":"北門區","name_ja":"北門区","name_ko":"북문구","is_active":true,"created_at":"2025-12-11T00:35:31.400193"}, {"id":108,"region_id":5,"code":"xinying","name_en":"Xinying District","name_zh":"新營區","name_ja":"新営区","name_ko":"신영구","is_active":true,"created_at":"2025-12-11T00:35:31.403451"}, {"id":109,"region_id":5,"code":"houbi","name_en":"Houbi District","name_zh":"後壁區","name_ja":"後壁区","name_ko":"후벽구","is_active":true,"created_at":"2025-12-11T00:35:31.406194"}, {"id":110,"region_id":5,"code":"baihe","name_en":"Baihe District","name_zh":"白河區","name_ja":"白河区","name_ko":"백하구","is_active":true,"created_at":"2025-12-11T00:35:31.409814"}, {"id":111,"region_id":5,"code":"dongshan","name_en":"Dongshan District","name_zh":"東山區","name_ja":"東山区","name_ko":"동산구","is_active":true,"created_at":"2025-12-11T00:35:31.413394"}, {"id":112,"region_id":5,"code":"liujia","name_en":"Liujia District","name_zh":"六甲區","name_ja":"六甲区","name_ko":"육갑구","is_active":true,"created_at":"2025-12-11T00:35:31.417596"}, {"id":113,"region_id":5,"code":"xiaying","name_en":"Xiaying District","name_zh":"下營區","name_ja":"下営区","name_ko":"하영구","is_active":true,"created_at":"2025-12-11T00:35:31.42063"}, {"id":114,"region_id":5,"code":"liuying","name_en":"Liuying District","name_zh":"柳營區","name_ja":"柳営区","name_ko":"유영구","is_active":true,"created_at":"2025-12-11T00:35:31.423594"}, {"id":115,"region_id":5,"code":"yanshui","name_en":"Yanshui District","name_zh":"鹽水區","name_ja":"塩水区","name_ko":"염수구","is_active":true,"created_at":"2025-12-11T00:35:31.425928"}, {"id":116,"region_id":5,"code":"shanhua","name_en":"Shanhua District","name_zh":"善化區","name_ja":"善化区","name_ko":"선화구","is_active":true,"created_at":"2025-12-11T00:35:31.428537"}, {"id":117,"region_id":5,"code":"danei","name_en":"Danei District","name_zh":"大內區","name_ja":"大内区","name_ko":"대내구","is_active":true,"created_at":"2025-12-11T00:35:31.430896"}, {"id":118,"region_id":5,"code":"shanshang","name_en":"Shanshang District","name_zh":"山上區","name_ja":"山上区","name_ko":"산상구","is_active":true,"created_at":"2025-12-11T00:35:31.434065"}, {"id":119,"region_id":5,"code":"xinshi","name_en":"Xinshi District","name_zh":"新市區","name_ja":"新市区","name_ko":"신시구","is_active":true,"created_at":"2025-12-11T00:35:31.436981"}, {"id":120,"region_id":5,"code":"anding","name_en":"Anding District","name_zh":"安定區","name_ja":"安定区","name_ko":"안정구","is_active":true,"created_at":"2025-12-11T00:35:31.439385"}, {"id":121,"region_id":6,"code":"yancheng","name_en":"Yancheng District","name_zh":"鹽埕區","name_ja":"塩埕区","name_ko":"염정구","is_active":true,"created_at":"2025-12-11T00:35:31.442082"}, {"id":122,"region_id":6,"code":"gushan","name_en":"Gushan District","name_zh":"鼓山區","name_ja":"鼓山区","name_ko":"고산구","is_active":true,"created_at":"2025-12-11T00:35:31.446152"}, {"id":123,"region_id":6,"code":"zuoying","name_en":"Zuoying District","name_zh":"左營區","name_ja":"左營区","name_ko":"좌영구","is_active":true,"created_at":"2025-12-11T00:35:31.458741"}, {"id":124,"region_id":6,"code":"nanzi","name_en":"Nanzi District","name_zh":"楠梓區","name_ja":"楠梓区","name_ko":"남자구","is_active":true,"created_at":"2025-12-11T00:35:31.463192"}, {"id":125,"region_id":6,"code":"sanmin","name_en":"Sanmin District","name_zh":"三民區","name_ja":"三民区","name_ko":"삼민구","is_active":true,"created_at":"2025-12-11T00:35:31.46648"}, {"id":126,"region_id":6,"code":"xinxing","name_en":"Xinxing District","name_zh":"新興區","name_ja":"新興区","name_ko":"신흥구","is_active":true,"created_at":"2025-12-11T00:35:31.469948"}, {"id":127,"region_id":6,"code":"qianjin","name_en":"Qianjin District","name_zh":"前金區","name_ja":"前金区","name_ko":"전금구","is_active":true,"created_at":"2025-12-11T00:35:31.47493"}, {"id":128,"region_id":6,"code":"lingya","name_en":"Lingya District","name_zh":"苓雅區","name_ja":"苓雅区","name_ko":"영아구","is_active":true,"created_at":"2025-12-11T00:35:31.478605"}, {"id":129,"region_id":6,"code":"qianzhen","name_en":"Qianzhen District","name_zh":"前鎮區","name_ja":"前鎮区","name_ko":"전진구","is_active":true,"created_at":"2025-12-11T00:35:31.48264"}, {"id":130,"region_id":6,"code":"qijin","name_en":"Qijin District","name_zh":"旗津區","name_ja":"旗津区","name_ko":"기진구","is_active":true,"created_at":"2025-12-11T00:35:31.486404"}, {"id":131,"region_id":6,"code":"xiaogang","name_en":"Xiaogang District","name_zh":"小港區","name_ja":"小港区","name_ko":"소항구","is_active":true,"created_at":"2025-12-11T00:35:31.489311"}, {"id":132,"region_id":6,"code":"fengshan","name_en":"Fengshan District","name_zh":"鳳山區","name_ja":"鳳山区","name_ko":"봉산구","is_active":true,"created_at":"2025-12-11T00:35:31.493503"}, {"id":133,"region_id":6,"code":"linyuan","name_en":"Linyuan District","name_zh":"林園區","name_ja":"林園区","name_ko":"임원구","is_active":true,"created_at":"2025-12-11T00:35:31.496777"}, {"id":134,"region_id":6,"code":"daliao","name_en":"Daliao District","name_zh":"大寮區","name_ja":"大寮区","name_ko":"대료구","is_active":true,"created_at":"2025-12-11T00:35:31.500437"}, {"id":135,"region_id":6,"code":"dashu","name_en":"Dashu District","name_zh":"大樹區","name_ja":"大樹区","name_ko":"대수구","is_active":true,"created_at":"2025-12-11T00:35:31.503546"}, {"id":136,"region_id":6,"code":"dashe","name_en":"Dashe District","name_zh":"大社區","name_ja":"大社区","name_ko":"대사구","is_active":true,"created_at":"2025-12-11T00:35:31.506372"}, {"id":137,"region_id":6,"code":"renwu","name_en":"Renwu District","name_zh":"仁武區","name_ja":"仁武区","name_ko":"인무구","is_active":true,"created_at":"2025-12-11T00:35:31.50982"}, {"id":138,"region_id":6,"code":"niaosong","name_en":"Niaosong District","name_zh":"鳥松區","name_ja":"鳥松区","name_ko":"조송구","is_active":true,"created_at":"2025-12-11T00:35:31.51332"}, {"id":139,"region_id":6,"code":"gangshan","name_en":"Gangshan District","name_zh":"岡山區","name_ja":"岡山区","name_ko":"강산구","is_active":true,"created_at":"2025-12-11T00:35:31.516905"}, {"id":140,"region_id":6,"code":"qiaotou","name_en":"Qiaotou District","name_zh":"橋頭區","name_ja":"橋頭区","name_ko":"교두구","is_active":true,"created_at":"2025-12-11T00:35:31.52335"}, {"id":141,"region_id":6,"code":"yanchao","name_en":"Yanchao District","name_zh":"燕巢區","name_ja":"燕巣区","name_ko":"연소구","is_active":true,"created_at":"2025-12-11T00:35:31.526005"}, {"id":142,"region_id":6,"code":"tianliao","name_en":"Tianliao District","name_zh":"田寮區","name_ja":"田寮区","name_ko":"전료구","is_active":true,"created_at":"2025-12-11T00:35:31.528983"}, {"id":143,"region_id":6,"code":"alian","name_en":"Alian District","name_zh":"阿蓮區","name_ja":"阿蓮区","name_ko":"아련구","is_active":true,"created_at":"2025-12-11T00:35:31.5319"}, {"id":144,"region_id":6,"code":"luzhu_kh","name_en":"Luzhu District","name_zh":"路竹區","name_ja":"路竹区","name_ko":"로죽구","is_active":true,"created_at":"2025-12-11T00:35:31.534787"}, {"id":145,"region_id":6,"code":"hunei","name_en":"Hunei District","name_zh":"湖內區","name_ja":"湖内区","name_ko":"호내구","is_active":true,"created_at":"2025-12-11T00:35:31.537721"}, {"id":146,"region_id":6,"code":"qieding","name_en":"Qieding District","name_zh":"茄萣區","name_ja":"茄萣区","name_ko":"가정구","is_active":true,"created_at":"2025-12-11T00:35:31.541871"}, {"id":147,"region_id":6,"code":"yongan","name_en":"Yong'an District","name_zh":"永安區","name_ja":"永安区","name_ko":"영안구","is_active":true,"created_at":"2025-12-11T00:35:31.545289"}, {"id":148,"region_id":6,"code":"mituo","name_en":"Mituo District","name_zh":"彌陀區","name_ja":"弥陀区","name_ko":"미타구","is_active":true,"created_at":"2025-12-11T00:35:31.548447"}, {"id":149,"region_id":6,"code":"ziguan","name_en":"Ziguan District","name_zh":"梓官區","name_ja":"梓官区","name_ko":"자관구","is_active":true,"created_at":"2025-12-11T00:35:31.551501"}, {"id":150,"region_id":6,"code":"qishan","name_en":"Qishan District","name_zh":"旗山區","name_ja":"旗山区","name_ko":"기산구","is_active":true,"created_at":"2025-12-11T00:35:31.555805"}, {"id":151,"region_id":6,"code":"meinong","name_en":"Meinong District","name_zh":"美濃區","name_ja":"美濃区","name_ko":"미농구","is_active":true,"created_at":"2025-12-11T00:35:31.561566"}, {"id":152,"region_id":6,"code":"liugui","name_en":"Liugui District","name_zh":"六龜區","name_ja":"六亀区","name_ko":"육귀구","is_active":true,"created_at":"2025-12-11T00:35:31.564709"}, {"id":153,"region_id":6,"code":"jiaxian","name_en":"Jiaxian District","name_zh":"甲仙區","name_ja":"甲仙区","name_ko":"갑선구","is_active":true,"created_at":"2025-12-11T00:35:31.567589"}, {"id":154,"region_id":6,"code":"shanlin","name_en":"Shanlin District","name_zh":"杉林區","name_ja":"杉林区","name_ko":"삼림구","is_active":true,"created_at":"2025-12-11T00:35:31.571427"}, {"id":155,"region_id":6,"code":"neimen","name_en":"Neimen District","name_zh":"內門區","name_ja":"内門区","name_ko":"내문구","is_active":true,"created_at":"2025-12-11T00:35:31.575891"}, {"id":156,"region_id":6,"code":"maolin","name_en":"Maolin District","name_zh":"茂林區","name_ja":"茂林区","name_ko":"무림구","is_active":true,"created_at":"2025-12-11T00:35:31.578741"}, {"id":157,"region_id":6,"code":"taoyuan_kh","name_en":"Taoyuan District","name_zh":"桃源區","name_ja":"桃源区","name_ko":"도원구","is_active":true,"created_at":"2025-12-11T00:35:31.582177"}, {"id":158,"region_id":6,"code":"namaxia","name_en":"Namaxia District","name_zh":"那瑪夏區","name_ja":"那瑪夏区","name_ko":"나마하구","is_active":true,"created_at":"2025-12-11T00:35:31.588704"}, {"id":159,"region_id":7,"code":"ren_ai","name_en":"Ren'ai District","name_zh":"仁愛區","name_ja":"仁愛区","name_ko":"인애구","is_active":true,"created_at":"2025-12-11T00:35:31.592072"}, {"id":160,"region_id":7,"code":"xinyi_kl","name_en":"Xinyi District","name_zh":"信義區","name_ja":"信義区","name_ko":"신의구","is_active":true,"created_at":"2025-12-11T00:35:31.595287"}, {"id":161,"region_id":7,"code":"zhongzheng_kl","name_en":"Zhongzheng District","name_zh":"中正區","name_ja":"中正区","name_ko":"중정구","is_active":true,"created_at":"2025-12-11T00:35:31.59833"}, {"id":162,"region_id":7,"code":"zhongshan_kl","name_en":"Zhongshan District","name_zh":"中山區","name_ja":"中山区","name_ko":"중산구","is_active":true,"created_at":"2025-12-11T00:35:31.601731"}, {"id":163,"region_id":7,"code":"anle","name_en":"Anle District","name_zh":"安樂區","name_ja":"安楽区","name_ko":"안락구","is_active":true,"created_at":"2025-12-11T00:35:31.604657"}, {"id":164,"region_id":7,"code":"nuannuan","name_en":"Nuannuan District","name_zh":"暖暖區","name_ja":"暖暖区","name_ko":"난난구","is_active":true,"created_at":"2025-12-11T00:35:31.607792"}, {"id":165,"region_id":7,"code":"qidu","name_en":"Qidu District","name_zh":"七堵區","name_ja":"七堵区","name_ko":"칠두구","is_active":true,"created_at":"2025-12-11T00:35:31.610623"}, {"id":166,"region_id":8,"code":"east_hc","name_en":"East District","name_zh":"東區","name_ja":"東区","name_ko":"동구","is_active":true,"created_at":"2025-12-11T00:35:31.613787"}, {"id":167,"region_id":8,"code":"north_hc","name_en":"North District","name_zh":"北區","name_ja":"北区","name_ko":"북구","is_active":true,"created_at":"2025-12-11T00:35:31.616163"}, {"id":168,"region_id":8,"code":"xiangshan","name_en":"Xiangshan District","name_zh":"香山區","name_ja":"香山区","name_ko":"향산구","is_active":true,"created_at":"2025-12-11T00:35:31.618733"}, {"id":169,"region_id":9,"code":"east_cy","name_en":"East District","name_zh":"東區","name_ja":"東区","name_ko":"동구","is_active":true,"created_at":"2025-12-11T00:35:31.621242"}, {"id":170,"region_id":9,"code":"west_cy","name_en":"West District","name_zh":"西區","name_ja":"西区","name_ko":"서구","is_active":true,"created_at":"2025-12-11T00:35:31.624264"}, {"id":171,"region_id":10,"code":"zhubei","name_en":"Zhubei City","name_zh":"竹北市","name_ja":"竹北市","name_ko":"죽북시","is_active":true,"created_at":"2025-12-11T00:35:31.627211"}, {"id":172,"region_id":10,"code":"zhudong","name_en":"Zhudong Township","name_zh":"竹東鎮","name_ja":"竹東鎮","name_ko":"죽동진","is_active":true,"created_at":"2025-12-11T00:35:31.630536"}, {"id":173,"region_id":10,"code":"xinpu","name_en":"Xinpu Township","name_zh":"新埔鎮","name_ja":"新埔鎮","name_ko":"신포진","is_active":true,"created_at":"2025-12-11T00:35:31.632951"}, {"id":174,"region_id":10,"code":"guanxi","name_en":"Guanxi Township","name_zh":"關西鎮","name_ja":"関西鎮","name_ko":"관서진","is_active":true,"created_at":"2025-12-11T00:35:31.636047"}, {"id":175,"region_id":10,"code":"hukou","name_en":"Hukou Township","name_zh":"湖口鄉","name_ja":"湖口郷","name_ko":"호구향","is_active":true,"created_at":"2025-12-11T00:35:31.640975"}, {"id":176,"region_id":10,"code":"xinfeng","name_en":"Xinfeng Township","name_zh":"新豐鄉","name_ja":"新豊郷","name_ko":"신풍향","is_active":true,"created_at":"2025-12-11T00:35:31.643784"}, {"id":177,"region_id":10,"code":"qionglin","name_en":"Qionglin Township","name_zh":"芎林鄉","name_ja":"芎林郷","name_ko":"궁림향","is_active":true,"created_at":"2025-12-11T00:35:31.647783"}, {"id":178,"region_id":10,"code":"hengshan","name_en":"Hengshan Township","name_zh":"橫山鄉","name_ja":"横山郷","name_ko":"횡산향","is_active":true,"created_at":"2025-12-11T00:35:31.653929"}, {"id":179,"region_id":10,"code":"beipu","name_en":"Beipu Township","name_zh":"北埔鄉","name_ja":"北埔郷","name_ko":"북포향","is_active":true,"created_at":"2025-12-11T00:35:31.656544"}, {"id":180,"region_id":10,"code":"baoshan","name_en":"Baoshan Township","name_zh":"寶山鄉","name_ja":"宝山郷","name_ko":"보산향","is_active":true,"created_at":"2025-12-11T00:35:31.659309"}, {"id":181,"region_id":10,"code":"emei","name_en":"Emei Township","name_zh":"峨眉鄉","name_ja":"峨眉郷","name_ko":"아미향","is_active":true,"created_at":"2025-12-11T00:35:31.663701"}, {"id":182,"region_id":10,"code":"jianshi","name_en":"Jianshi Township","name_zh":"尖石鄉","name_ja":"尖石郷","name_ko":"첨석향","is_active":true,"created_at":"2025-12-11T00:35:31.666698"}, {"id":183,"region_id":10,"code":"wufeng_hc","name_en":"Wufeng Township","name_zh":"五峰鄉","name_ja":"五峰郷","name_ko":"오봉향","is_active":true,"created_at":"2025-12-11T00:35:31.669085"}, {"id":184,"region_id":11,"code":"miaoli","name_en":"Miaoli City","name_zh":"苗栗市","name_ja":"苗栗市","name_ko":"묘율시","is_active":true,"created_at":"2025-12-11T00:35:31.671509"}, {"id":185,"region_id":11,"code":"toufen","name_en":"Toufen City","name_zh":"頭份市","name_ja":"頭份市","name_ko":"두분시","is_active":true,"created_at":"2025-12-11T00:35:31.674079"}, {"id":186,"region_id":11,"code":"yuanli","name_en":"Yuanli Township","name_zh":"苑裡鎮","name_ja":"苑裡鎮","name_ko":"원리진","is_active":true,"created_at":"2025-12-11T00:35:31.67744"}, {"id":187,"region_id":11,"code":"tongxiao","name_en":"Tongxiao Township","name_zh":"通霄鎮","name_ja":"通霄鎮","name_ko":"통소진","is_active":true,"created_at":"2025-12-11T00:35:31.679873"}, {"id":188,"region_id":11,"code":"zhunan","name_en":"Zhunan Township","name_zh":"竹南鎮","name_ja":"竹南鎮","name_ko":"죽남진","is_active":true,"created_at":"2025-12-11T00:35:31.682585"}, {"id":189,"region_id":11,"code":"houlong","name_en":"Houlong Township","name_zh":"後龍鎮","name_ja":"後龍鎮","name_ko":"후룡진","is_active":true,"created_at":"2025-12-11T00:35:31.685351"}, {"id":190,"region_id":11,"code":"zhuolan","name_en":"Zhuolan Township","name_zh":"卓蘭鎮","name_ja":"卓蘭鎮","name_ko":"탁란진","is_active":true,"created_at":"2025-12-11T00:35:31.689039"}, {"id":191,"region_id":11,"code":"dahu","name_en":"Dahu Township","name_zh":"大湖鄉","name_ja":"大湖郷","name_ko":"대호향","is_active":true,"created_at":"2025-12-11T00:35:31.691314"}, {"id":192,"region_id":11,"code":"gongguan","name_en":"Gongguan Township","name_zh":"公館鄉","name_ja":"公館郷","name_ko":"공관향","is_active":true,"created_at":"2025-12-11T00:35:31.694618"}, {"id":193,"region_id":11,"code":"tongluo","name_en":"Tongluo Township","name_zh":"銅鑼鄉","name_ja":"銅鑼郷","name_ko":"동라향","is_active":true,"created_at":"2025-12-11T00:35:31.697223"}, {"id":194,"region_id":11,"code":"nanzhuang","name_en":"Nanzhuang Township","name_zh":"南庄鄉","name_ja":"南庄郷","name_ko":"남장향","is_active":true,"created_at":"2025-12-11T00:35:31.700521"}, {"id":195,"region_id":11,"code":"touwu","name_en":"Touwu Township","name_zh":"頭屋鄉","name_ja":"頭屋郷","name_ko":"두옥향","is_active":true,"created_at":"2025-12-11T00:35:31.703483"}, {"id":196,"region_id":11,"code":"sanyi","name_en":"Sanyi Township","name_zh":"三義鄉","name_ja":"三義郷","name_ko":"삼의향","is_active":true,"created_at":"2025-12-11T00:35:31.708037"}, {"id":197,"region_id":11,"code":"xihu","name_en":"Xihu Township","name_zh":"西湖鄉","name_ja":"西湖郷","name_ko":"서호향","is_active":true,"created_at":"2025-12-11T00:35:31.711877"}, {"id":198,"region_id":11,"code":"zaoqiao","name_en":"Zaoqiao Township","name_zh":"造橋鄉","name_ja":"造橋郷","name_ko":"조교향","is_active":true,"created_at":"2025-12-11T00:35:31.716341"}, {"id":199,"region_id":11,"code":"sanwan","name_en":"Sanwan Township","name_zh":"三灣鄉","name_ja":"三湾郷","name_ko":"삼만향","is_active":true,"created_at":"2025-12-11T00:35:31.719411"}, {"id":200,"region_id":11,"code":"shitan","name_en":"Shitan Township","name_zh":"獅潭鄉","name_ja":"獅潭郷","name_ko":"사담향","is_active":true,"created_at":"2025-12-11T00:35:31.722574"}, {"id":201,"region_id":11,"code":"taian","name_en":"Tai'an Township","name_zh":"泰安鄉","name_ja":"泰安郷","name_ko":"태안향","is_active":true,"created_at":"2025-12-11T00:35:31.72726"}, {"id":202,"region_id":12,"code":"changhua","name_en":"Changhua City","name_zh":"彰化市","name_ja":"彰化市","name_ko":"창화시","is_active":true,"created_at":"2025-12-11T00:35:31.731812"}, {"id":203,"region_id":12,"code":"yuanlin","name_en":"Yuanlin City","name_zh":"員林市","name_ja":"員林市","name_ko":"원림시","is_active":true,"created_at":"2025-12-11T00:35:31.736489"}, {"id":204,"region_id":12,"code":"lugang","name_en":"Lugang Township","name_zh":"鹿港鎮","name_ja":"鹿港鎮","name_ko":"녹항진","is_active":true,"created_at":"2025-12-11T00:35:31.739189"}, {"id":205,"region_id":12,"code":"hemei","name_en":"Hemei Township","name_zh":"和美鎮","name_ja":"和美鎮","name_ko":"화미진","is_active":true,"created_at":"2025-12-11T00:35:31.74221"}, {"id":206,"region_id":12,"code":"beidou","name_en":"Beidou Township","name_zh":"北斗鎮","name_ja":"北斗鎮","name_ko":"북두진","is_active":true,"created_at":"2025-12-11T00:35:31.7478"}, {"id":207,"region_id":12,"code":"xihu_ch","name_en":"Xihu Township","name_zh":"溪湖鎮","name_ja":"渓湖鎮","name_ko":"계호진","is_active":true,"created_at":"2025-12-11T00:35:31.750859"}, {"id":208,"region_id":12,"code":"tianzhong","name_en":"Tianzhong Township","name_zh":"田中鎮","name_ja":"田中鎮","name_ko":"전중진","is_active":true,"created_at":"2025-12-11T00:35:31.753553"}, {"id":209,"region_id":12,"code":"erlin","name_en":"Erlin Township","name_zh":"二林鎮","name_ja":"二林鎮","name_ko":"이림진","is_active":true,"created_at":"2025-12-11T00:35:31.756249"}, {"id":210,"region_id":12,"code":"xianxi","name_en":"Xianxi Township","name_zh":"線西鄉","name_ja":"線西郷","name_ko":"선서향","is_active":true,"created_at":"2025-12-11T00:35:31.760445"}, {"id":211,"region_id":12,"code":"shengang_ch","name_en":"Shengang Township","name_zh":"伸港鄉","name_ja":"伸港郷","name_ko":"신항향","is_active":true,"created_at":"2025-12-11T00:35:31.763098"}, {"id":212,"region_id":12,"code":"fuxing_ch","name_en":"Fuxing Township","name_zh":"福興鄉","name_ja":"福興郷","name_ko":"복흥향","is_active":true,"created_at":"2025-12-11T00:35:31.765791"}, {"id":213,"region_id":12,"code":"xiushui","name_en":"Xiushui Township","name_zh":"秀水鄉","name_ja":"秀水郷","name_ko":"수수향","is_active":true,"created_at":"2025-12-11T00:35:31.77036"}, {"id":214,"region_id":12,"code":"huatan","name_en":"Huatan Township","name_zh":"花壇鄉","name_ja":"花壇郷","name_ko":"화단향","is_active":true,"created_at":"2025-12-11T00:35:31.773793"}, {"id":215,"region_id":12,"code":"fenyuan","name_en":"Fenyuan Township","name_zh":"芬園鄉","name_ja":"芬園郷","name_ko":"분원향","is_active":true,"created_at":"2025-12-11T00:35:31.77673"}, {"id":216,"region_id":12,"code":"dacun","name_en":"Dacun Township","name_zh":"大村鄉","name_ja":"大村郷","name_ko":"대촌향","is_active":true,"created_at":"2025-12-11T00:35:31.780193"}, {"id":217,"region_id":12,"code":"puyan","name_en":"Puyan Township","name_zh":"埔鹽鄉","name_ja":"埔塩郷","name_ko":"포염향","is_active":true,"created_at":"2025-12-11T00:35:31.783043"}, {"id":218,"region_id":12,"code":"puxin","name_en":"Puxin Township","name_zh":"埔心鄉","name_ja":"埔心郷","name_ko":"포심향","is_active":true,"created_at":"2025-12-11T00:35:31.785974"}, {"id":219,"region_id":12,"code":"yongjing","name_en":"Yongjing Township","name_zh":"永靖鄉","name_ja":"永靖郷","name_ko":"영정향","is_active":true,"created_at":"2025-12-11T00:35:31.78836"}, {"id":220,"region_id":12,"code":"shetou","name_en":"Shetou Township","name_zh":"社頭鄉","name_ja":"社頭郷","name_ko":"사두향","is_active":true,"created_at":"2025-12-11T00:35:31.7916"}, {"id":221,"region_id":12,"code":"ershui","name_en":"Ershui Township","name_zh":"二水鄉","name_ja":"二水郷","name_ko":"이수향","is_active":true,"created_at":"2025-12-11T00:35:31.794697"}, {"id":222,"region_id":12,"code":"tianwei","name_en":"Tianwei Township","name_zh":"田尾鄉","name_ja":"田尾郷","name_ko":"전미향","is_active":true,"created_at":"2025-12-11T00:35:31.799674"}, {"id":223,"region_id":12,"code":"pitou","name_en":"Pitou Township","name_zh":"埤頭鄉","name_ja":"埤頭郷","name_ko":"비두향","is_active":true,"created_at":"2025-12-11T00:35:31.816052"}, {"id":224,"region_id":12,"code":"fangyuan","name_en":"Fangyuan Township","name_zh":"芳苑鄉","name_ja":"芳苑郷","name_ko":"방원향","is_active":true,"created_at":"2025-12-11T00:35:31.819261"}, {"id":225,"region_id":12,"code":"dacheng","name_en":"Dacheng Township","name_zh":"大城鄉","name_ja":"大城郷","name_ko":"대성향","is_active":true,"created_at":"2025-12-11T00:35:31.821814"}, {"id":226,"region_id":12,"code":"zhutang","name_en":"Zhutang Township","name_zh":"竹塘鄉","name_ja":"竹塘郷","name_ko":"죽당향","is_active":true,"created_at":"2025-12-11T00:35:31.827687"}, {"id":227,"region_id":12,"code":"xizhou","name_en":"Xizhou Township","name_zh":"溪州鄉","name_ja":"渓州郷","name_ko":"계주향","is_active":true,"created_at":"2025-12-11T00:35:31.830807"}, {"id":228,"region_id":13,"code":"nantou","name_en":"Nantou City","name_zh":"南投市","name_ja":"南投市","name_ko":"남투시","is_active":true,"created_at":"2025-12-11T00:35:31.833607"}, {"id":229,"region_id":13,"code":"puli","name_en":"Puli Township","name_zh":"埔里鎮","name_ja":"埔里鎮","name_ko":"포리진","is_active":true,"created_at":"2025-12-11T00:35:31.836215"}, {"id":230,"region_id":13,"code":"caotun","name_en":"Caotun Township","name_zh":"草屯鎮","name_ja":"草屯鎮","name_ko":"초둔진","is_active":true,"created_at":"2025-12-11T00:35:31.840254"}, {"id":231,"region_id":13,"code":"zhushan","name_en":"Zhushan Township","name_zh":"竹山鎮","name_ja":"竹山鎮","name_ko":"죽산진","is_active":true,"created_at":"2025-12-11T00:35:31.842618"}, {"id":232,"region_id":13,"code":"jiji","name_en":"Jiji Township","name_zh":"集集鎮","name_ja":"集集鎮","name_ko":"집집진","is_active":true,"created_at":"2025-12-11T00:35:31.845294"}, {"id":233,"region_id":13,"code":"mingjian","name_en":"Mingjian Township","name_zh":"名間鄉","name_ja":"名間郷","name_ko":"명간향","is_active":true,"created_at":"2025-12-11T00:35:31.848277"}, {"id":234,"region_id":13,"code":"lugu","name_en":"Lugu Township","name_zh":"鹿谷鄉","name_ja":"鹿谷郷","name_ko":"록곡향","is_active":true,"created_at":"2025-12-11T00:35:31.851432"}, {"id":235,"region_id":13,"code":"zhongliao","name_en":"Zhongliao Township","name_zh":"中寮鄉","name_ja":"中寮郷","name_ko":"중료향","is_active":true,"created_at":"2025-12-11T00:35:31.854148"}, {"id":236,"region_id":13,"code":"yuchi","name_en":"Yuchi Township","name_zh":"魚池鄉","name_ja":"魚池郷","name_ko":"어지향","is_active":true,"created_at":"2025-12-11T00:35:31.858445"}, {"id":237,"region_id":13,"code":"guoxing","name_en":"Guoxing Township","name_zh":"國姓鄉","name_ja":"国姓郷","name_ko":"국성향","is_active":true,"created_at":"2025-12-11T00:35:31.86111"}, {"id":238,"region_id":13,"code":"shuili","name_en":"Shuili Township","name_zh":"水里鄉","name_ja":"水里郷","name_ko":"수리향","is_active":true,"created_at":"2025-12-11T00:35:31.867691"}, {"id":239,"region_id":13,"code":"xinyi_nt","name_en":"Xinyi Township","name_zh":"信義鄉","name_ja":"信義郷","name_ko":"신의향","is_active":true,"created_at":"2025-12-11T00:35:31.872715"}, {"id":240,"region_id":13,"code":"renai","name_en":"Ren'ai Township","name_zh":"仁愛鄉","name_ja":"仁愛郷","name_ko":"인애향","is_active":true,"created_at":"2025-12-11T00:35:31.876001"}, {"id":241,"region_id":14,"code":"douliu","name_en":"Douliu City","name_zh":"斗六市","name_ja":"斗六市","name_ko":"두육시","is_active":true,"created_at":"2025-12-11T00:35:31.878646"}, {"id":242,"region_id":14,"code":"dounan","name_en":"Dounan Township","name_zh":"斗南鎮","name_ja":"斗南鎮","name_ko":"두남진","is_active":true,"created_at":"2025-12-11T00:35:31.885017"}, {"id":243,"region_id":14,"code":"huwei","name_en":"Huwei Township","name_zh":"虎尾鎮","name_ja":"虎尾鎮","name_ko":"호미진","is_active":true,"created_at":"2025-12-11T00:35:31.889431"}, {"id":244,"region_id":14,"code":"xiluo","name_en":"Xiluo Township","name_zh":"西螺鎮","name_ja":"西螺鎮","name_ko":"서라진","is_active":true,"created_at":"2025-12-11T00:35:31.891813"}, {"id":245,"region_id":14,"code":"tuku","name_en":"Tuku Township","name_zh":"土庫鎮","name_ja":"土庫鎮","name_ko":"토고진","is_active":true,"created_at":"2025-12-11T00:35:31.894789"}, {"id":246,"region_id":14,"code":"beigang","name_en":"Beigang Township","name_zh":"北港鎮","name_ja":"北港鎮","name_ko":"북항진","is_active":true,"created_at":"2025-12-11T00:35:31.898195"}, {"id":247,"region_id":14,"code":"gukeng","name_en":"Gukeng Township","name_zh":"古坑鄉","name_ja":"古坑郷","name_ko":"고갱향","is_active":true,"created_at":"2025-12-11T00:35:31.900575"}, {"id":248,"region_id":14,"code":"dapi","name_en":"Dapi Township","name_zh":"大埤鄉","name_ja":"大埤郷","name_ko":"대비향","is_active":true,"created_at":"2025-12-11T00:35:31.902582"}, {"id":249,"region_id":14,"code":"citong","name_en":"Citong Township","name_zh":"莿桐鄉","name_ja":"莿桐郷","name_ko":"자동향","is_active":true,"created_at":"2025-12-11T00:35:31.904913"}, {"id":250,"region_id":14,"code":"linnei","name_en":"Linnei Township","name_zh":"林內鄉","name_ja":"林内郷","name_ko":"임내향","is_active":true,"created_at":"2025-12-11T00:35:31.908323"}, {"id":251,"region_id":14,"code":"erlun","name_en":"Erlun Township","name_zh":"二崙鄉","name_ja":"二崙郷","name_ko":"이륜향","is_active":true,"created_at":"2025-12-11T00:35:31.910731"}, {"id":252,"region_id":14,"code":"lunbei","name_en":"Lunbei Township","name_zh":"崙背鄉","name_ja":"崙背郷","name_ko":"륜배향","is_active":true,"created_at":"2025-12-11T00:35:31.914599"}, {"id":253,"region_id":14,"code":"mailiao","name_en":"Mailiao Township","name_zh":"麥寮鄉","name_ja":"麦寮郷","name_ko":"맥료향","is_active":true,"created_at":"2025-12-11T00:35:31.917315"}, {"id":254,"region_id":14,"code":"dongshi_yl","name_en":"Dongshi Township","name_zh":"東勢鄉","name_ja":"東勢郷","name_ko":"동세향","is_active":true,"created_at":"2025-12-11T00:35:31.920571"}, {"id":255,"region_id":14,"code":"baozhong","name_en":"Baozhong Township","name_zh":"褒忠鄉","name_ja":"褒忠郷","name_ko":"포충향","is_active":true,"created_at":"2025-12-11T00:35:31.923644"}, {"id":256,"region_id":14,"code":"taixi","name_en":"Taixi Township","name_zh":"臺西鄉","name_ja":"台西郷","name_ko":"태서향","is_active":true,"created_at":"2025-12-11T00:35:31.926336"}, {"id":257,"region_id":14,"code":"yuanchang","name_en":"Yuanchang Township","name_zh":"元長鄉","name_ja":"元長郷","name_ko":"원장향","is_active":true,"created_at":"2025-12-11T00:35:31.928926"}, {"id":258,"region_id":14,"code":"sihu","name_en":"Sihu Township","name_zh":"四湖鄉","name_ja":"四湖郷","name_ko":"사호향","is_active":true,"created_at":"2025-12-11T00:35:31.932449"}, {"id":259,"region_id":14,"code":"kouhu","name_en":"Kouhu Township","name_zh":"口湖鄉","name_ja":"口湖郷","name_ko":"구호향","is_active":true,"created_at":"2025-12-11T00:35:31.934921"}, {"id":260,"region_id":14,"code":"shuilin","name_en":"Shuilin Township","name_zh":"水林鄉","name_ja":"水林郷","name_ko":"수림향","is_active":true,"created_at":"2025-12-11T00:35:31.937553"}, {"id":261,"region_id":15,"code":"taibao","name_en":"Taibao City","name_zh":"太保市","name_ja":"太保市","name_ko":"태보시","is_active":true,"created_at":"2025-12-11T00:35:31.940161"}, {"id":262,"region_id":15,"code":"puzi","name_en":"Puzi City","name_zh":"朴子市","name_ja":"朴子市","name_ko":"박자시","is_active":true,"created_at":"2025-12-11T00:35:31.943369"}, {"id":263,"region_id":15,"code":"budai","name_en":"Budai Township","name_zh":"布袋鎮","name_ja":"布袋鎮","name_ko":"포대진","is_active":true,"created_at":"2025-12-11T00:35:31.945693"}, {"id":264,"region_id":15,"code":"dalin","name_en":"Dalin Township","name_zh":"大林鎮","name_ja":"大林鎮","name_ko":"대림진","is_active":true,"created_at":"2025-12-11T00:35:31.947835"}, {"id":265,"region_id":15,"code":"minxiong","name_en":"Minxiong Township","name_zh":"民雄鄉","name_ja":"民雄郷","name_ko":"민웅향","is_active":true,"created_at":"2025-12-11T00:35:31.951102"}, {"id":266,"region_id":15,"code":"xikou","name_en":"Xikou Township","name_zh":"溪口鄉","name_ja":"渓口郷","name_ko":"계구향","is_active":true,"created_at":"2025-12-11T00:35:31.954639"}, {"id":267,"region_id":15,"code":"xingang","name_en":"Xingang Township","name_zh":"新港鄉","name_ja":"新港郷","name_ko":"신항향","is_active":true,"created_at":"2025-12-11T00:35:31.956794"}, {"id":268,"region_id":15,"code":"liujiao","name_en":"Liujiao Township","name_zh":"六腳鄉","name_ja":"六脚郷","name_ko":"육각향","is_active":true,"created_at":"2025-12-11T00:35:31.958972"}, {"id":269,"region_id":15,"code":"dongshi_cy","name_en":"Dongshi Township","name_zh":"東石鄉","name_ja":"東石郷","name_ko":"동석향","is_active":true,"created_at":"2025-12-11T00:35:31.961161"}, {"id":270,"region_id":15,"code":"yizhu","name_en":"Yizhu Township","name_zh":"義竹鄉","name_ja":"義竹郷","name_ko":"의죽향","is_active":true,"created_at":"2025-12-11T00:35:31.965504"}, {"id":271,"region_id":15,"code":"lucao","name_en":"Lucao Township","name_zh":"鹿草鄉","name_ja":"鹿草郷","name_ko":"녹초향","is_active":true,"created_at":"2025-12-11T00:35:31.967718"}, {"id":272,"region_id":15,"code":"shuishang","name_en":"Shuishang Township","name_zh":"水上鄉","name_ja":"水上郷","name_ko":"수상향","is_active":true,"created_at":"2025-12-11T00:35:31.969869"}, {"id":273,"region_id":15,"code":"zhongpu","name_en":"Zhongpu Township","name_zh":"中埔鄉","name_ja":"中埔郷","name_ko":"중포향","is_active":true,"created_at":"2025-12-11T00:35:31.972132"}, {"id":274,"region_id":15,"code":"zhuqi","name_en":"Zhuqi Township","name_zh":"竹崎鄉","name_ja":"竹崎郷","name_ko":"죽기향","is_active":true,"created_at":"2025-12-11T00:35:31.975459"}, {"id":275,"region_id":15,"code":"meishan","name_en":"Meishan Township","name_zh":"梅山鄉","name_ja":"梅山郷","name_ko":"매산향","is_active":true,"created_at":"2025-12-11T00:35:31.977722"}, {"id":276,"region_id":15,"code":"fanlu","name_en":"Fanlu Township","name_zh":"番路鄉","name_ja":"番路郷","name_ko":"번로향","is_active":true,"created_at":"2025-12-11T00:35:31.979865"}, {"id":277,"region_id":15,"code":"dapu","name_en":"Dapu Township","name_zh":"大埔鄉","name_ja":"大埔郷","name_ko":"대포향","is_active":true,"created_at":"2025-12-11T00:35:31.981963"}, {"id":278,"region_id":15,"code":"alishan","name_en":"Alishan Township","name_zh":"阿里山鄉","name_ja":"阿里山郷","name_ko":"아리산향","is_active":true,"created_at":"2025-12-11T00:35:31.984551"}, {"id":279,"region_id":16,"code":"pingtung","name_en":"Pingtung City","name_zh":"屏東市","name_ja":"屏東市","name_ko":"핑둥시","is_active":true,"created_at":"2025-12-11T00:35:31.986503"}, {"id":280,"region_id":16,"code":"chaozhou","name_en":"Chaozhou Township","name_zh":"潮州鎮","name_ja":"潮州鎮","name_ko":"조주진","is_active":true,"created_at":"2025-12-11T00:35:31.988549"}, {"id":281,"region_id":16,"code":"donggang","name_en":"Donggang Township","name_zh":"東港鎮","name_ja":"東港鎮","name_ko":"동항진","is_active":true,"created_at":"2025-12-11T00:35:31.990816"}, {"id":282,"region_id":16,"code":"hengchun","name_en":"Hengchun Township","name_zh":"恆春鎮","name_ja":"恆春鎮","name_ko":"항춘진","is_active":true,"created_at":"2025-12-11T00:35:31.993519"}, {"id":283,"region_id":16,"code":"wandan","name_en":"Wandan Township","name_zh":"萬丹鄉","name_ja":"萬丹郷","name_ko":"만단향","is_active":true,"created_at":"2025-12-11T00:35:31.99559"}, {"id":284,"region_id":16,"code":"changzhi","name_en":"Changzhi Township","name_zh":"長治鄉","name_ja":"長治郷","name_ko":"장치향","is_active":true,"created_at":"2025-12-11T00:35:31.997649"}, {"id":285,"region_id":16,"code":"linluo","name_en":"Linluo Township","name_zh":"麟洛鄉","name_ja":"麟洛郷","name_ko":"인락향","is_active":true,"created_at":"2025-12-11T00:35:31.999662"}, {"id":286,"region_id":16,"code":"jiuru","name_en":"Jiuru Township","name_zh":"九如鄉","name_ja":"九如郷","name_ko":"구여향","is_active":true,"created_at":"2025-12-11T00:35:32.00231"}, {"id":287,"region_id":16,"code":"ligang","name_en":"Ligang Township","name_zh":"里港鄉","name_ja":"里港郷","name_ko":"이항향","is_active":true,"created_at":"2025-12-11T00:35:32.004641"}, {"id":288,"region_id":16,"code":"yanpu","name_en":"Yanpu Township","name_zh":"鹽埔鄉","name_ja":"塩埔郷","name_ko":"염포향","is_active":true,"created_at":"2025-12-11T00:35:32.006887"}, {"id":289,"region_id":16,"code":"gaoshu","name_en":"Gaoshu Township","name_zh":"高樹鄉","name_ja":"高樹郷","name_ko":"고수향","is_active":true,"created_at":"2025-12-11T00:35:32.009496"}, {"id":290,"region_id":16,"code":"wanluan","name_en":"Wanluan Township","name_zh":"萬巒鄉","name_ja":"萬巒郷","name_ko":"만만향","is_active":true,"created_at":"2025-12-11T00:35:32.012368"}, {"id":291,"region_id":16,"code":"neipu","name_en":"Neipu Township","name_zh":"內埔鄉","name_ja":"内埔郷","name_ko":"내포향","is_active":true,"created_at":"2025-12-11T00:35:32.014515"}, {"id":292,"region_id":16,"code":"zhutian","name_en":"Zhutian Township","name_zh":"竹田鄉","name_ja":"竹田郷","name_ko":"죽전향","is_active":true,"created_at":"2025-12-11T00:35:32.016522"}, {"id":293,"region_id":16,"code":"xinpi","name_en":"Xinpi Township","name_zh":"新埤鄉","name_ja":"新埤郷","name_ko":"신비향","is_active":true,"created_at":"2025-12-11T00:35:32.019228"}, {"id":294,"region_id":16,"code":"fangliao","name_en":"Fangliao Township","name_zh":"枋寮鄉","name_ja":"枋寮郷","name_ko":"방료향","is_active":true,"created_at":"2025-12-11T00:35:32.02202"}, {"id":295,"region_id":16,"code":"xinyuan","name_en":"Xinyuan Township","name_zh":"新園鄉","name_ja":"新園郷","name_ko":"신원향","is_active":true,"created_at":"2025-12-11T00:35:32.02427"}, {"id":296,"region_id":16,"code":"kanding","name_en":"Kanding Township","name_zh":"崁頂鄉","name_ja":"崁頂郷","name_ko":"감정향","is_active":true,"created_at":"2025-12-11T00:35:32.02665"}, {"id":297,"region_id":16,"code":"linbian","name_en":"Linbian Township","name_zh":"林邊鄉","name_ja":"林辺郷","name_ko":"임변향","is_active":true,"created_at":"2025-12-11T00:35:32.028837"}, {"id":298,"region_id":16,"code":"nanzhou","name_en":"Nanzhou Township","name_zh":"南州鄉","name_ja":"南州郷","name_ko":"남주향","is_active":true,"created_at":"2025-12-11T00:35:32.032094"}, {"id":299,"region_id":16,"code":"jiadong","name_en":"Jiadong Township","name_zh":"佳冬鄉","name_ja":"佳冬郷","name_ko":"가동향","is_active":true,"created_at":"2025-12-11T00:35:32.034646"}, {"id":300,"region_id":16,"code":"liuqiu","name_en":"Liuqiu Township","name_zh":"琉球鄉","name_ja":"琉球郷","name_ko":"유구향","is_active":true,"created_at":"2025-12-11T00:35:32.037112"}, {"id":301,"region_id":16,"code":"checheng","name_en":"Checheng Township","name_zh":"車城鄉","name_ja":"車城郷","name_ko":"차성향","is_active":true,"created_at":"2025-12-11T00:35:32.040772"}, {"id":302,"region_id":16,"code":"manzhou","name_en":"Manzhou Township","name_zh":"滿州鄉","name_ja":"満州郷","name_ko":"만주향","is_active":true,"created_at":"2025-12-11T00:35:32.044316"}, {"id":303,"region_id":16,"code":"fangshan","name_en":"Fangshan Township","name_zh":"枋山鄉","name_ja":"枋山郷","name_ko":"방산향","is_active":true,"created_at":"2025-12-11T00:35:32.047255"}, {"id":304,"region_id":16,"code":"sandimen","name_en":"Sandimen Township","name_zh":"三地門鄉","name_ja":"三地門郷","name_ko":"삼지문향","is_active":true,"created_at":"2025-12-11T00:35:32.049817"}, {"id":305,"region_id":16,"code":"wutai","name_en":"Wutai Township","name_zh":"霧臺鄉","name_ja":"霧台郷","name_ko":"무대향","is_active":true,"created_at":"2025-12-11T00:35:32.052315"}, {"id":306,"region_id":16,"code":"majia","name_en":"Majia Township","name_zh":"瑪家鄉","name_ja":"瑪家郷","name_ko":"마가향","is_active":true,"created_at":"2025-12-11T00:35:32.055567"}, {"id":307,"region_id":16,"code":"taiwu","name_en":"Taiwu Township","name_zh":"泰武鄉","name_ja":"泰武郷","name_ko":"태무향","is_active":true,"created_at":"2025-12-11T00:35:32.059806"}, {"id":308,"region_id":16,"code":"laiyi","name_en":"Laiyi Township","name_zh":"來義鄉","name_ja":"來義郷","name_ko":"래의향","is_active":true,"created_at":"2025-12-11T00:35:32.063821"}, {"id":309,"region_id":16,"code":"chunri","name_en":"Chunri Township","name_zh":"春日鄉","name_ja":"春日郷","name_ko":"춘일향","is_active":true,"created_at":"2025-12-11T00:35:32.066736"}, {"id":310,"region_id":16,"code":"shizi","name_en":"Shizi Township","name_zh":"獅子鄉","name_ja":"獅子郷","name_ko":"사자향","is_active":true,"created_at":"2025-12-11T00:35:32.071262"}, {"id":311,"region_id":16,"code":"mudan","name_en":"Mudan Township","name_zh":"牡丹鄉","name_ja":"牡丹郷","name_ko":"모란향","is_active":true,"created_at":"2025-12-11T00:35:32.075301"}, {"id":312,"region_id":17,"code":"yilan","name_en":"Yilan City","name_zh":"宜蘭市","name_ja":"宜蘭市","name_ko":"의란시","is_active":true,"created_at":"2025-12-11T00:35:32.078134"}, {"id":313,"region_id":17,"code":"luodong","name_en":"Luodong Township","name_zh":"羅東鎮","name_ja":"羅東鎮","name_ko":"라동진","is_active":true,"created_at":"2025-12-11T00:35:32.083045"}, {"id":314,"region_id":17,"code":"suao","name_en":"Su'ao Township","name_zh":"蘇澳鎮","name_ja":"蘇澳鎮","name_ko":"소오진","is_active":true,"created_at":"2025-12-11T00:35:32.087664"}, {"id":315,"region_id":17,"code":"toucheng","name_en":"Toucheng Township","name_zh":"頭城鎮","name_ja":"頭城鎮","name_ko":"두성진","is_active":true,"created_at":"2025-12-11T00:35:32.090385"}, {"id":316,"region_id":17,"code":"jiaoxi","name_en":"Jiaoxi Township","name_zh":"礁溪鄉","name_ja":"礁溪郷","name_ko":"초계향","is_active":true,"created_at":"2025-12-11T00:35:32.09347"}, {"id":317,"region_id":17,"code":"zhuangwei","name_en":"Zhuangwei Township","name_zh":"壯圍鄉","name_ja":"壮囲郷","name_ko":"장위향","is_active":true,"created_at":"2025-12-11T00:35:32.096746"}, {"id":318,"region_id":17,"code":"yuanshan","name_en":"Yuanshan Township","name_zh":"員山鄉","name_ja":"員山郷","name_ko":"원산향","is_active":true,"created_at":"2025-12-11T00:35:32.100206"}, {"id":319,"region_id":17,"code":"dongshan_yl","name_en":"Dongshan Township","name_zh":"冬山鄉","name_ja":"冬山郷","name_ko":"동산향","is_active":true,"created_at":"2025-12-11T00:35:32.103509"}, {"id":320,"region_id":17,"code":"wujie","name_en":"Wujie Township","name_zh":"五結鄉","name_ja":"五結郷","name_ko":"오결향","is_active":true,"created_at":"2025-12-11T00:35:32.106727"}, {"id":321,"region_id":17,"code":"sanxing","name_en":"Sanxing Township","name_zh":"三星鄉","name_ja":"三星郷","name_ko":"삼성향","is_active":true,"created_at":"2025-12-11T00:35:32.109826"}, {"id":322,"region_id":17,"code":"datong_yl","name_en":"Datong Township","name_zh":"大同鄉","name_ja":"大同郷","name_ko":"대동향","is_active":true,"created_at":"2025-12-11T00:35:32.11325"}, {"id":323,"region_id":17,"code":"nanao","name_en":"Nan'ao Township","name_zh":"南澳鄉","name_ja":"南澳郷","name_ko":"남오향","is_active":true,"created_at":"2025-12-11T00:35:32.116559"}, {"id":324,"region_id":18,"code":"hualien","name_en":"Hualien City","name_zh":"花蓮市","name_ja":"花蓮市","name_ko":"화련시","is_active":true,"created_at":"2025-12-11T00:35:32.119382"}, {"id":325,"region_id":18,"code":"fenglin","name_en":"Fenglin Township","name_zh":"鳳林鎮","name_ja":"鳳林鎮","name_ko":"봉림진","is_active":true,"created_at":"2025-12-11T00:35:32.12209"}, {"id":326,"region_id":18,"code":"yuli","name_en":"Yuli Township","name_zh":"玉里鎮","name_ja":"玉里鎮","name_ko":"옥리진","is_active":true,"created_at":"2025-12-11T00:35:32.125538"}, {"id":327,"region_id":18,"code":"xincheng","name_en":"Xincheng Township","name_zh":"新城鄉","name_ja":"新城郷","name_ko":"신성향","is_active":true,"created_at":"2025-12-11T00:35:32.130301"}, {"id":328,"region_id":18,"code":"ji_an","name_en":"Ji'an Township","name_zh":"吉安鄉","name_ja":"吉安郷","name_ko":"길안향","is_active":true,"created_at":"2025-12-11T00:35:32.132823"}, {"id":329,"region_id":18,"code":"shoufeng","name_en":"Shoufeng Township","name_zh":"壽豐鄉","name_ja":"壽豊郷","name_ko":"수풍향","is_active":true,"created_at":"2025-12-11T00:35:32.135592"}, {"id":330,"region_id":18,"code":"guangfu","name_en":"Guangfu Township","name_zh":"光復鄉","name_ja":"光復郷","name_ko":"광복향","is_active":true,"created_at":"2025-12-11T00:35:32.139014"}, {"id":331,"region_id":18,"code":"fengbin","name_en":"Fengbin Township","name_zh":"豐濱鄉","name_ja":"豊浜郷","name_ko":"풍빈향","is_active":true,"created_at":"2025-12-11T00:35:32.141558"}, {"id":332,"region_id":18,"code":"ruisui","name_en":"Ruisui Township","name_zh":"瑞穗鄉","name_ja":"瑞穂郷","name_ko":"서수향","is_active":true,"created_at":"2025-12-11T00:35:32.14418"}, {"id":333,"region_id":18,"code":"fuli","name_en":"Fuli Township","name_zh":"富里鄉","name_ja":"富里郷","name_ko":"부리향","is_active":true,"created_at":"2025-12-11T00:35:32.146665"}, {"id":334,"region_id":18,"code":"xiulin","name_en":"Xiulin Township","name_zh":"秀林鄉","name_ja":"秀林郷","name_ko":"수림향","is_active":true,"created_at":"2025-12-11T00:35:32.149612"}, {"id":335,"region_id":18,"code":"wanrong","name_en":"Wanrong Township","name_zh":"萬榮鄉","name_ja":"萬榮郷","name_ko":"만영향","is_active":true,"created_at":"2025-12-11T00:35:32.151831"}, {"id":336,"region_id":18,"code":"zhuoxi","name_en":"Zhuoxi Township","name_zh":"卓溪鄉","name_ja":"卓渓郷","name_ko":"탁계향","is_active":true,"created_at":"2025-12-11T00:35:32.154017"}, {"id":337,"region_id":19,"code":"taitung","name_en":"Taitung City","name_zh":"臺東市","name_ja":"台東市","name_ko":"태동시","is_active":true,"created_at":"2025-12-11T00:35:32.156473"}, {"id":338,"region_id":19,"code":"chenggong","name_en":"Chenggong Township","name_zh":"成功鎮","name_ja":"成功鎮","name_ko":"성공진","is_active":true,"created_at":"2025-12-11T00:35:32.159565"}, {"id":339,"region_id":19,"code":"guanshan","name_en":"Guanshan Township","name_zh":"關山鎮","name_ja":"関山鎮","name_ko":"관산진","is_active":true,"created_at":"2025-12-11T00:35:32.161609"}, {"id":340,"region_id":19,"code":"beinan","name_en":"Beinan Township","name_zh":"卑南鄉","name_ja":"卑南郷","name_ko":"비남향","is_active":true,"created_at":"2025-12-11T00:35:32.163713"}, {"id":341,"region_id":19,"code":"dawu","name_en":"Dawu Township","name_zh":"大武鄉","name_ja":"大武郷","name_ko":"대무향","is_active":true,"created_at":"2025-12-11T00:35:32.16588"}, {"id":342,"region_id":19,"code":"taimali","name_en":"Taimali Township","name_zh":"太麻里鄉","name_ja":"太麻里郷","name_ko":"태마리향","is_active":true,"created_at":"2025-12-11T00:35:32.168815"}, {"id":343,"region_id":19,"code":"donghe","name_en":"Donghe Township","name_zh":"東河鄉","name_ja":"東河郷","name_ko":"동하향","is_active":true,"created_at":"2025-12-11T00:35:32.17126"}, {"id":344,"region_id":19,"code":"changbin","name_en":"Changbin Township","name_zh":"長濱鄉","name_ja":"長浜郷","name_ko":"장빈향","is_active":true,"created_at":"2025-12-11T00:35:32.17355"}, {"id":345,"region_id":19,"code":"luye","name_en":"Luye Township","name_zh":"鹿野鄉","name_ja":"鹿野郷","name_ko":"녹야향","is_active":true,"created_at":"2025-12-11T00:35:32.17588"}, {"id":346,"region_id":19,"code":"chishang","name_en":"Chishang Township","name_zh":"池上鄉","name_ja":"池上郷","name_ko":"지상향","is_active":true,"created_at":"2025-12-11T00:35:32.181063"}, {"id":347,"region_id":19,"code":"green_island","name_en":"Green Island","name_zh":"綠島鄉","name_ja":"緑島郷","name_ko":"녹도향","is_active":true,"created_at":"2025-12-11T00:35:32.183765"}, {"id":348,"region_id":19,"code":"yanping","name_en":"Yanping Township","name_zh":"延平鄉","name_ja":"延平郷","name_ko":"연평향","is_active":true,"created_at":"2025-12-11T00:35:32.186346"}, {"id":349,"region_id":19,"code":"haiduan","name_en":"Haiduan Township","name_zh":"海端鄉","name_ja":"海端郷","name_ko":"해단향","is_active":true,"created_at":"2025-12-11T00:35:32.189079"}, {"id":350,"region_id":19,"code":"daren","name_en":"Daren Township","name_zh":"達仁鄉","name_ja":"達仁郷","name_ko":"달인향","is_active":true,"created_at":"2025-12-11T00:35:32.193313"}, {"id":351,"region_id":19,"code":"jinfeng","name_en":"Jinfeng Township","name_zh":"金峰鄉","name_ja":"金峰郷","name_ko":"금봉향","is_active":true,"created_at":"2025-12-11T00:35:32.196315"}, {"id":352,"region_id":19,"code":"orchid_island","name_en":"Orchid Island","name_zh":"蘭嶼鄉","name_ja":"蘭嶼郷","name_ko":"난서향","is_active":true,"created_at":"2025-12-11T00:35:32.199606"}, {"id":353,"region_id":20,"code":"magong","name_en":"Magong City","name_zh":"馬公市","name_ja":"馬公市","name_ko":"마공시","is_active":true,"created_at":"2025-12-11T00:35:32.202479"}, {"id":354,"region_id":20,"code":"huxi","name_en":"Huxi Township","name_zh":"湖西鄉","name_ja":"湖西郷","name_ko":"호서향","is_active":true,"created_at":"2025-12-11T00:35:32.205527"}, {"id":355,"region_id":20,"code":"baisha","name_en":"Baisha Township","name_zh":"白沙鄉","name_ja":"白沙郷","name_ko":"백사향","is_active":true,"created_at":"2025-12-11T00:35:32.208134"}, {"id":356,"region_id":20,"code":"xiyu","name_en":"Xiyu Township","name_zh":"西嶼鄉","name_ja":"西嶼郷","name_ko":"서서향","is_active":true,"created_at":"2025-12-11T00:35:32.211039"}, {"id":357,"region_id":20,"code":"wangan","name_en":"Wang'an Township","name_zh":"望安鄉","name_ja":"望安郷","name_ko":"망안향","is_active":true,"created_at":"2025-12-11T00:35:32.213757"}, {"id":358,"region_id":20,"code":"qimei","name_en":"Qimei Township","name_zh":"七美鄉","name_ja":"七美郷","name_ko":"칠미향","is_active":true,"created_at":"2025-12-11T00:35:32.219717"}, {"id":359,"region_id":21,"code":"jincheng","name_en":"Jincheng Township","name_zh":"金城鎮","name_ja":"金城鎮","name_ko":"금성진","is_active":true,"created_at":"2025-12-11T00:35:32.22305"}, {"id":360,"region_id":21,"code":"jinhu","name_en":"Jinhu Township","name_zh":"金湖鎮","name_ja":"金湖鎮","name_ko":"금호진","is_active":true,"created_at":"2025-12-11T00:35:32.227122"}, {"id":361,"region_id":21,"code":"jinsha","name_en":"Jinsha Township","name_zh":"金沙鎮","name_ja":"金沙鎮","name_ko":"금사진","is_active":true,"created_at":"2025-12-11T00:35:32.230892"}, {"id":362,"region_id":21,"code":"jinning","name_en":"Jinning Township","name_zh":"金寧鄉","name_ja":"金寧郷","name_ko":"금녕향","is_active":true,"created_at":"2025-12-11T00:35:32.234137"}, {"id":363,"region_id":21,"code":"lieyu","name_en":"Lieyu Township","name_zh":"烈嶼鄉","name_ja":"烈嶼郷","name_ko":"열서향","is_active":true,"created_at":"2025-12-11T00:35:32.237173"}, {"id":364,"region_id":21,"code":"wuqiu","name_en":"Wuqiu Township","name_zh":"烏坵鄉","name_ja":"烏坵郷","name_ko":"오구향","is_active":true,"created_at":"2025-12-11T00:35:32.240312"}, {"id":365,"region_id":22,"code":"nangan","name_en":"Nangan Township","name_zh":"南竿鄉","name_ja":"南竿郷","name_ko":"남간향","is_active":true,"created_at":"2025-12-11T00:35:32.245595"}, {"id":366,"region_id":22,"code":"beigan","name_en":"Beigan Township","name_zh":"北竿鄉","name_ja":"北竿郷","name_ko":"북간향","is_active":true,"created_at":"2025-12-11T00:35:32.249338"}, {"id":367,"region_id":22,"code":"juguang","name_en":"Juguang Township","name_zh":"莒光鄉","name_ja":"莒光郷","name_ko":"거광향","is_active":true,"created_at":"2025-12-11T00:35:32.251989"}, {"id":368,"region_id":22,"code":"dongyin","name_en":"Dongyin Township","name_zh":"東引鄉","name_ja":"東引郷","name_ko":"동인향","is_active":true,"created_at":"2025-12-11T00:35:32.254978"}]
